{
  "norad_id": 58558,
  "name": "YAOGAN-39 05B",
  "history": [
    {
      "epoch": "2026-03-28T20:04:22.966752Z",
      "apogee_km": 522.5120312023319,
      "perigee_km": 508.13819760909973,
      "latitude_deg": 2.059121929468472e-05,
      "longitude_deg": 94.78402783329472,
      "height_km": 509.0197202529029,
      "semi_major_axis_km": 6893.4621144057155,
      "eccentricity": 0.00104257,
      "inclination_deg": 34.9917,
      "raan_deg": 222.1308,
      "arg_perigee_deg": 316.5598,
      "mean_anomaly_deg": 43.4293,
      "mean_motion_rev_day": 15.16864098
    },
    {
      "epoch": "2026-03-30T00:30:21.971232Z",
      "apogee_km": 522.4079675972944,
      "perigee_km": 508.1145063529275,
      "latitude_deg": 4.413384537872192e-05,
      "longitude_deg": 19.73920559873563,
      "height_km": 508.1989977508412,
      "semi_major_axis_km": 6893.398236975111,
      "eccentricity": 0.00103675,
      "inclination_deg": 34.9919,
      "raan_deg": 214.7495,
      "arg_perigee_deg": 326.7314,
      "mean_anomaly_deg": 33.2747,
      "mean_motion_rev_day": 15.16885182
    },
    {
      "epoch": "2026-03-30T14:43:20.962848Z",
      "apogee_km": 522.3246356840791,
      "perigee_km": 508.13105959549284,
      "latitude_deg": 4.0125915893439154e-05,
      "longitude_deg": 162.2189559390549,
      "height_km": 507.886809053879,
      "semi_major_axis_km": 6893.364847639786,
      "eccentricity": 0.00102951,
      "inclination_deg": 34.992,
      "raan_deg": 211.0589,
      "arg_perigee_deg": 331.7962,
      "mean_anomaly_deg": 28.2193,
      "mean_motion_rev_day": 15.16896203
    }
  ]
}